FLOCK 4H-32             
1 66735U 25276BX  26068.76539783  .00008106  00000+0  39605-3 0  9999
2 66735  97.4290 144.0078 0004533  12.8699 347.2650 15.18499661 15322
ACCENTURE-1             
1 66767U 25276DF  26068.76687462  .00005020  00000+0  24178-3 0  9993
2 66767  97.4232 144.0790 0001861 116.0656 244.0770 15.19190222 15335
